308P/Lagerkvist-Carsenty,e,4.8554,63.0343,333.7216,6.599265,0.0581381,0.36475998,177.4803,09/21.0/2023,2000,g 13.0,2.0
# From MPEC 2023-R20
309P/LINEAR,e,17.0237,10.1443,49.9331,4.374996,0.1077054,0.61837567,339.5318,09/21.0/2023,2000,g 15.0,4.0
# From MPEC 2023-R20
310P/Hill,e,13.1236,8.9209,31.6201,4.188604,0.1149741,0.42303235,356.2393,09/21.0/2023,2000,g 13.5,4.0
# From MPEC 2021-BE3
311P/PANSTARRS,e,4.9695,279.1896,144.3271,2.189064,0.3043102,0.11599627,328.6180,09/21.0/2023,2000,g 17.0,4.0
# From MPEC 2021-BE3
312P/NEAT,e,19.7582,144.6673,207.6860,3.470394,0.1524530,0.42746461,166.3001,09/21.0/2023,2000,g 16.0,4.0
# From MPEC 2021-S45
313P/Gibbs,e,10.9787,105.9401,254.9104,3.164153,0.1751128,0.23486138,219.3388,09/21.0/2023,2000,g 15.0,4.0
# From MPC105243
314P/Montani,e,3.9887,267.6107,213.8718,7.254275,0.0504444,0.41733948,128.0447,09/21.0/2023,2000,g  9.5,4.0
# From MPEC 2023-J29
315P/LONEOS,e,17.7328,68.7289,65.7669,4.939612,0.0897769,0.52126534,223.6788,09/21.0/2023,2000,g 11.0,4.0
# From MPC 92279
316P/LONEOS-Christensen,e,9.8435,246.0687,190.6873,4.402122,0.1067115,0.15709719,316.6733,09/21.0/2023,2000,g 13.5,4.0
# From MPEC 2020-C98
317P/WISE,e,11.9596,275.4711,334.8204,2.961838,0.1933580,0.57090242,210.8142,09/21.0/2023,2000,g 17.5,4.0
# From MPC102103
318P/McNaught-Hartley,e,17.8903,35.4968,313.3732,7.507776,0.0479112,0.67469171,138.3121,09/21.0/2023,2000,g  8.5,6.0
# From MPC 97499
319P/Catalina-McNaught,e,15.0951,111.3616,203.6539,3.564297,0.1464682,0.66642829,78.9006,09/21.0/2023,2000,g 15.0,4.0
# From MPC 96281
320P/McNaught,e,4.9030,295.9498,0.7808,3.094702,0.1810405,0.68499408,176.9466,09/21.0/2023,2000,g 20.5,4.0
# From MPC105243
321P/SOHO,e,20.0755,165.0170,172.7443,2.422822,0.2613496,0.98106305,0.0000,10/26.6099/2023,2000,g 20.0,4.0
# From MPC102103
322P/SOHO,e,11.4641,351.4852,56.9295,2.507555,0.2482152,0.97998250,0.0000,08/21.0861/2023,2000,g 19.0,4.0
# From MPEC 2016-Y36
323P/SOHO,e,5.3082,324.4208,353.0190,2.583347,0.2373722,0.98469651,0.0000,03/14.4693/2025,2000,g 20.0,4.0
# From MPEC 2021-W31
324P/LaSagra,e,21.4009,270.5817,57.5559,3.095088,0.1810066,0.15344118,157.3130,09/21.0/2023,2000,g 13.0,4.0
# From MPEC 2022-TA0
325P/Yang-Gao,e,16.7368,257.2277,344.2890,3.534367,0.1483326,0.59307016,80.2029,09/21.0/2023,2000,g 14.0,4.0
# From MPEC 2023-R20
326P/Hill,e,2.4711,99.8051,278.6409,4.065314,0.1202438,0.31870679,347.9231,09/21.0/2023,2000,g 13.5,4.0
# From MPEC 2023-B57
327P/VanNess,e,36.2502,173.9845,185.0263,3.561949,0.1466130,0.56307514,56.2483,09/21.0/2023,2000,g 16.0,4.0
# From MPC109148
328P/LONEOS-Tucker,e,17.6726,341.6147,30.6285,4.189100,0.1149537,0.55273099,324.2565,09/21.0/2023,2000,g 14.5,4.0
# From MPC101101
329P/LINEAR-Catalina,e,21.7180,87.6534,343.5693,5.186643,0.0834400,0.67855790,237.7193,09/21.0/2023,2000,g 13.5,4.0
# From MPEC 2023-J29
330P/Catalina,e,15.7203,293.0795,188.8252,6.619952,0.0578658,0.54941859,149.3817,09/21.0/2023,2000,g 12.0,4.0
# From MPEC 2023-KD6
331P/Gibbs,e,9.7403,216.7526,184.7328,3.004828,0.1892233,0.04142329,204.5558,09/21.0/2023,2000,g 12.0,4.0
# From MPEC 2016-K18
332P/Ikeya-Murakami,e,9.3807,3.7801,152.2842,3.087224,0.1816987,0.48931116,138.7812,09/21.0/2023,2000,g 18.0,4.0
# From MPEC 2016-EI8
332P-B/Ikeya-Murakami,e,9.3805,3.8028,152.3711,3.082329,0.1821317,0.48970701,359.9699,03/17.0/2016,2000,g 19.0,4.0
# From MPEC 2016-K18
332P-C/Ikeya-Murakami,e,9.3797,3.7805,152.2755,3.087191,0.1817017,0.48931669,138.7977,09/21.0/2023,2000,g 16.5,4.0
# From MPEC 2016-ED0
332P-D/Ikeya-Murakami,e,9.3761,3.7923,152.4393,3.081138,0.1822373,0.48977814,359.9486,03/17.0/2016,2000,g 19.0,4.0
# From MPEC 2016-ED0
332P-E/Ikeya-Murakami,e,9.3774,3.8228,152.2825,3.079877,0.1823493,0.48922008,359.9889,03/17.0/2016,2000,g 21.0,4.0
# From MPEC 2016-ED0
332P-F/Ikeya-Murakami,e,9.5293,3.4757,152.8203,3.163214,0.1751908,0.49918860,359.8501,03/17.0/2016,2000,g 21.0,4.0
# From MPEC 2016-ED0
332P-G/Ikeya-Murakami,e,9.2523,3.6955,154.4000,3.050519,0.1849880,0.49200362,359.9006,03/19.0/2016,2000,g 19.0,4.0
# From MPC100285
332P-H/Ikeya-Murakami,e,9.3802,3.7802,152.2761,3.087373,0.1816856,0.48935224,138.7202,09/21.0/2023,2000,g 19.0,4.0
# From MPEC 2016-ED0
332P-I/Ikeya-Murakami,e,9.3791,3.8048,152.3297,3.081767,0.1821815,0.48955490,359.9360,03/17.0/2016,2000,g 20.5,2.0
# From MPEC 2016-EI8
332P-J/Ikeya-Murakami,e,9.4296,3.6729,152.7712,3.115165,0.1792596,0.49429435,359.8613,03/17.0/2016,2000,g 20.5,2.0
# From MPEC 2020-L06
333P/LINEAR,e,132.0192,115.6879,25.9930,4.221567,0.1136301,0.73632481,310.5390,09/21.0/2023,2000,g 15.0,4.0
# From MPEC 2023-J29
334P/NEAT,e,20.3838,90.5298,90.0580,6.832866,0.0551823,0.35072138,126.9742,09/21.0/2023,2000,g 10.5,4.0
# From MPEC 2023-M14
335P/Gibbs,e,7.2929,330.8339,162.2973,3.578077,0.1456229,0.54632346,58.9752,09/21.0/2023,2000,g 16.8,4.0
# From MPC105244
336P/McNaught,e,17.8230,298.2781,308.6289,5.037284,0.0871785,0.44378328,211.5839,09/21.0/2023,2000,g 13.5,4.0
# From MPEC 2023-J29
337P/WISE,e,15.3778,105.8457,161.3695,3.292289,0.1649898,0.49749722,73.6459,09/21.0/2023,2000,g 17.0,4.0
# From MPEC 2023-J29
338P/McNaught,e,25.3862,9.7962,4.5502,3.892331,0.1283481,0.41215177,319.3233,09/21.0/2023,2000,g 12.0,4.0
# From MPC101101
339P/Gibbs,e,5.7332,172.7229,27.4600,3.700859,0.1384364,0.63568514,2.9149,09/21.0/2023,2000,g 17.0,4.0
# From MPC133426
340P/Boattini,e,2.0782,291.6863,36.0261,4.249369,0.1125168,0.28055238,280.3378,09/21.0/2023,2000,g 14.3,4.0
# From MPEC 2023-J29
341P/Gibbs,e,3.7970,29.9673,312.3064,4.289109,0.1109567,0.41561841,295.7033,09/21.0/2023,2000,g 12.5,4.0
# From MPC101101
342P/SOHO,e,11.6663,27.7041,73.2514,3.041133,0.1858450,0.98286068,0.0000,10/19.3008/2021,2000,g  9.0,4.0
# From MPEC 2023-J29
343P/NEAT-LONEOS,e,5.5943,257.0788,137.5406,5.457472,0.0773066,0.58531148,187.2799,09/21.0/2023,2000,g 14.0,4.0
# From MPEC 2023-J29
344P/Read,e,3.4972,273.1055,140.5033,4.859202,0.0920146,0.42360002,230.9674,09/21.0/2023,2000,g 13.0,4.0
# From MPEC 2022-K19
345P/LINEAR,e,2.7275,154.5114,196.6955,4.032950,0.1216942,0.22140931,318.0559,09/21.0/2023,2000,g 12.0,4.0
# From MPEC 2022-K19
346P/Catalina,e,22.2115,102.4523,335.9841,4.471949,0.1042219,0.50361937,251.0612,09/21.0/2023,2000,g 14.0,4.0
# From MPEC 2023-R20
347P/PANSTARRS,e,11.7543,261.0058,98.4363,3.607113,0.1438681,0.38662718,9.0580,09/21.0/2023,2000,g 15.0,4.0
# From MPEC 2022-ED3
348P/PANSTARRS,e,17.7363,312.9249,135.7019,3.151833,0.1761405,0.30723781,103.0938,09/21.0/2023,2000,g 14.0,4.0
# From MPEC 2022-K19
349P/Lemmon,e,5.4891,331.7567,255.8256,3.577544,0.1456554,0.29843886,323.6925,09/21.0/2023,2000,g 14.0,4.0
# From MPC111775
350P/McNaught,e,7.3653,65.2951,139.7959,4.082586,0.1194816,0.09401835,251.5953,09/21.0/2023,2000,g 14.0,4.0
# From MPC105244
351P/Wiegert-PANSTARRS,e,12.7772,283.4041,352.6466,4.439953,0.1053505,0.29488976,301.7836,09/21.0/2023,2000,g 12.5,4.0
# From MPEC 2023-J29
352P/Skiff,e,21.0149,27.9981,309.3957,6.649668,0.0574783,0.61738323,131.1445,09/21.0/2023,2000,g 13.2,4.0
# From MPEC 2020-AA5
353P/McNaught,e,28.4070,121.5009,230.5183,4.170419,0.1157270,0.47024756,242.6569,09/21.0/2023,2000,g 14.5,4.0
# From MPC105545
354P/LINEAR,e,5.2508,320.0753,132.6856,2.290062,0.2844024,0.12465429,353.5013,09/21.0/2023,2000,g 15.5,4.0
# From MPEC 2023-CD7
355P/LINEAR-NEAT,e,11.0472,51.4348,336.3341,3.468694,0.1525650,0.50793670,330.4913,09/21.0/2023,2000,g 15.5,2.0
# From MPEC 2022-F14
356P/WISE,e,9.6371,160.7828,226.1180,4.155532,0.1163494,0.35607999,244.2620,09/21.0/2023,2000,g 14.0,4.0
# From MPC114609
357P/Hill,e,6.3168,44.5585,1.4366,4.456844,0.1047521,0.43605980,202.9978,09/21.0/2023,2000,g 15.5,4.0
# From MPEC 2020-HN5
358P/PANSTARRS,e,11.0598,85.6882,299.7226,3.148860,0.1763900,0.23946515,351.0213,09/21.0/2023,2000,g 18.0,4.0
# From MPC110086
359P/LONEOS,e,10.2631,149.7420,200.3185,4.640569,0.0985933,0.32389866,218.7822,09/21.0/2023,2000,g 13.5,4.0
# From MPC108599
360P/WISE,e,24.1097,2.1864,354.2418,3.698491,0.1385694,0.49927281,307.5261,09/21.0/2023,2000,g 19.5,6.0
# From MPEC 2023-CD7
361P/Spacewatch,e,13.9040,203.2606,219.0212,4.934205,0.0899246,0.43939099,171.2253,09/21.0/2023,2000,g 12.0,4.0
# From MPEC 2017-V13
362P/,e,15.5569,192.5452,53.5349,3.972918,0.1244628,0.27867183,322.2410,09/21.0/2023,2000,g 12.9,2.0
# From MPC114609
363P/Lemmon,e,5.3974,146.8415,340.7950,3.573472,0.1459045,0.51922411,298.8309,09/21.0/2023,2000,g 17.5,4.0
# From MPEC 2023-R20
364P/PANSTARRS,e,12.1377,46.1475,212.0291,2.879808,0.2016782,0.72173077,26.2137,09/21.0/2023,2000,g 17.0,2.0
# From MPC111775
365P/PANSTARRS,e,9.8447,86.3062,67.7748,3.155946,0.1757963,0.58130930,356.7679,09/21.0/2023,2000,g 17.0,4.0
# From MPC114610
366P/Spacewatch,e,8.8567,70.7620,153.0095,3.497646,0.1506747,0.34818093,284.9481,09/21.0/2023,2000,g 15.0,4.0
# From MPC112395
367P/Catalina,e,8.4590,58.7148,172.7335,3.508925,0.1499488,0.27974069,288.1871,09/21.0/2023,2000,g 17.5,2.0
# From MPC114610
368P/NEAT,e,15.4848,257.8088,118.9883,5.531061,0.0757690,0.62662670,138.7316,09/21.0/2023,2000,g 14.0,4.0
# From MPC114610
369P/Hill,e,10.3258,47.2940,13.1704,4.380586,0.1074993,0.55574333,193.4456,09/21.0/2023,2000,g 15.0,4.0
# From MPEC 2021-F20
370P/NEAT,e,19.4314,55.0602,356.7353,6.435815,0.0603669,0.61552795,116.3436,09/21.0/2023,2000,g 13.0,4.0
# From MPC114610
371P/LINEAR-Skiff,e,17.3894,67.2292,308.6003,4.180495,0.1153088,0.47708097,208.7091,09/21.0/2023,2000,g 16.0,4.0
# From MPEC 2020-K19
372P/McNaught,e,9.5036,325.8097,27.7285,4.509322,0.1029289,0.15219051,184.4759,09/21.0/2023,2000,g 13.5,4.0
# From MPEC 2021-F20
373P/Rinner,e,13.7712,231.9699,221.0044,3.799761,0.1330668,0.39329717,216.2726,09/21.0/2023,2000,g 14.5,4.0
# From MPC114610
374P/Larson,e,10.7650,7.9081,51.4729,4.971056,0.0889265,0.46367440,152.2611,09/21.0/2023,2000,g 14.0,4.0
# From MPEC 2021-F20
375P/Hill,e,17.3630,359.9257,119.3609,5.548143,0.0754193,0.65937149,130.8229,09/21.0/2023,2000,g 16.0,4.0
# From MPEC 2022-K19
